
GLOBALSTAR M066
1 32265U 07048C   26169.93359090 -.00000142  00000+0 -40228-3 0  9996
2 32265  51.9605  52.8989 0005523  47.7061 325.3185 12.30387424860440

GLOBALSTAR M069
1 31573U 07020C   26170.14080520 -.00000071  00000+0  19936-3 0  9993
2 31573  52.0022 246.5976 0002297 152.2538 220.3803 12.23471384879048

GLOBALSTAR M072
1 31574U 07020D   26170.16671808 -.00000098  00000+0 -19525-3 0  9995
2 31574  51.9933  94.9752 0001434 337.2794 163.2525 11.91658332875211

GLOBALSTAR M073
1 37193U 10054F   26170.01335693 -.00000072  00000+0  17671-3 0  9993
2 37193  52.0071  58.7334 0000966  52.1652 321.7169 12.62266512724164

GLOBALSTAR M074
1 37189U 10054B   26169.98771181 -.00000102  00000+0  89247-5 0  9992
2 37189  52.0012 102.4526 0000585  54.2228  24.6135 12.62268357723387

GLOBALSTAR M075
1 37192U 10054E   26170.27147838 -.00000115  00000+0 -62701-4 0  9996
2 37192  51.9925 143.8458 0000218  24.0283  84.8930 12.62267333722208

GLOBALSTAR M076
1 37190U 10054C   26170.26933240 -.00000095  00000+0  48639-4 0  9993
2 37190  52.0023 101.7985 0000777  46.4816 112.7316 12.62261841723135

GLOBALSTAR M077
1 37191U 10054D   26170.25128778 -.00000090  00000+0 -22429-3 0  9999
2 37191  51.9918 174.0567 0002696 176.2151 196.7679 11.67547823721382

GLOBALSTAR M078
1 39076U 13005E   26170.26047276 -.00000128  00000+0 -13360-3 0  9992
2 39076  51.9884 277.2972 0000500 237.0434 123.0385 12.62257787616277

GLOBALSTAR M079
1 37188U 10054A   26170.29766363 -.00000089  00000+0  84270-4 0  9997
2 37188  52.0036 102.2446 0000767  29.2674 138.4735 12.62266132722816

GLOBALSTAR M080
1 38041U 11080B   26170.32243721 -.00000092  00000+0  63562-4 0  9993
2 38041  52.0078  12.5007 0000399  71.7512  98.7113 12.62269478669152

GLOBALSTAR M081
1 37743U 11033E   26170.34317725 -.00000105  00000+0 -88108-5 0  9997
2 37743  51.9930 189.0793 0000103  71.6140 302.2594 12.62265136690210

GLOBALSTAR M082
1 38042U 11080C   26170.17951316 -.00000082  00000+0  12427-3 0  9995
2 38042  52.0100 328.4373 0000516 101.3671  69.3051 12.62263766669846

GLOBALSTAR M083
1 37739U 11033A   26170.29830771 -.00000087  00000+0  93144-4 0  9990
2 37739  51.9874   6.0919 0000948  69.9582 100.8638 12.62263243693218

GLOBALSTAR M084
1 38040U 11080A   26170.27196519 -.00000099  00000+0  24795-4 0  9990
2 38040  52.0027  10.9355 0001096  88.7321  82.2102 12.62267578669025

GLOBALSTAR M085
1 37742U 11033D   26170.31659387 -.00000117  00000+0 -71448-4 0  9997
2 37742  52.0096 186.7260 0000157 313.4254  59.9349 12.62264139690068

GLOBALSTAR M086
1 38045U 11080F   26170.14871155 -.00000087  00000+0  91319-4 0  9990
2 38045  51.9916 322.4139 0001692  70.9137  99.8996 12.62286790669905

GLOBALSTAR M087
1 52888U 22064A   26170.14207553 -.00000084  00000+0  11288-3 0  9993
2 52888  52.0009  56.5010 0000790  42.7464 317.3465 12.62269147191380

GLOBALSTAR M088
1 37740U 11033B   26170.31738833 -.00000080  00000+0  13166-3 0  9999
2 37740  52.0215 272.4684 0000663 130.3954 245.5445 12.62268822688764

GLOBALSTAR M089
1 37744U 11033F   26170.22411441 -.00000106  00000+0 -14794-4 0  9995
2 37744  51.9909 143.5989 0000373  81.6003 291.8607 12.62267261691048

GLOBALSTAR M090
1 38044U 11080E   26170.20602730 -.00000099  00000+0  25939-4 0  9995
2 38044  52.0141 322.3126 0000778  94.1876  76.0831 12.62269053669967

GLOBALSTAR M091
1 37741U 11033C   26170.17430935 -.00000090  00000+0  76915-4 0  9999
2 37741  51.9989 235.8666 0000253 159.1742 227.2270 12.62264032689531

GLOBALSTAR M092
1 38043U 11080D   26170.06742009 -.00000087  00000+0  93882-4 0  9991
2 38043  52.0095  59.1748 0000732  65.9538  74.1417 12.62267034668280

GLOBALSTAR M093
1 39073U 13005B   26170.19488635 -.00000094  00000+0  53849-4 0  9997
2 39073  52.0093 230.5728 0000175  81.7864 278.3023 12.62266030617116

GLOBALSTAR M094
1 39074U 13005C   26170.19477635 -.00000120  00000+0 -91303-4 0  9994
2 39074  51.9932 144.6858 0000460   8.3704 351.7170 12.62268533618728

GLOBALSTAR M095
1 39077U 13005F   26169.97047681 -.00000084  00000+0  11014-3 0  9993
2 39077  52.0090 275.7870 0000196 131.0918 228.9966 12.62263473616099

GLOBALSTAR M096
1 39075U 13005D   26170.20826003 -.00000113  00000+0 -53669-4 0  9999
2 39075  52.0044 193.4491 0000071 323.2816  36.8046 12.62265672617645

GLOBALSTAR M097
1 39072U 13005A   26169.90495956 -.00000093  00000+0  58630-4 0  9999
2 39072  52.0038 238.1086 0000254 126.9260 233.1630 12.62247278617122
