OBJECT_NAME,OBJECT_ID,EPOCH,MEAN_MOTION,ECCENTRICITY,INCLINATION,RA_OF_ASC_NODE,ARG_OF_PERICENTER,MEAN_ANOMALY,EPHEMERIS_TYPE,CLASSIFICATION_TYPE,NORAD_CAT_ID,ELEMENT_SET_NO,REV_AT_EPOCH,BSTAR,MEAN_MOTION_DOT,MEAN_MOTION_DDOT
GLOBALSTAR M069,2007-020C,2026-06-19T03:22:45.569280,12.23471384,.00022972,52.0022,246.5976,152.2538,220.3803,0,U,31573,999,87904,.19935684E-3,-.71E-6,0
GLOBALSTAR M072,2007-020D,2026-06-19T04:00:04.442112,11.91658332,.00014344,51.9933,94.9752,337.2794,163.2525,0,U,31574,999,87521,-.19525176E-3,-.98E-6,0
GLOBALSTAR M066,2007-048C,2026-06-18T22:24:22.253760,12.30387424,.0005523,51.9605,52.8989,47.7061,325.3185,0,U,32265,999,86044,-.40228E-3,-.142E-5,0
GLOBALSTAR M079,2010-054A,2026-06-19T07:08:38.137632,12.62266132,.00007675,52.0036,102.2446,29.2674,138.4735,0,U,37188,999,72281,.84269634E-4,-.89E-6,0
GLOBALSTAR M074,2010-054B,2026-06-18T23:42:18.300384,12.62268357,.00005858,52.0012,102.4526,54.2228,24.6135,0,U,37189,999,72338,.8924676E-5,-.102E-5,0
GLOBALSTAR M076,2010-054C,2026-06-19T06:27:50.319360,12.62261841,.00007774,52.0023,101.7985,46.4816,112.7316,0,U,37190,999,72313,.4863919E-4,-.95E-6,0
GLOBALSTAR M077,2010-054D,2026-06-19T06:01:51.264192,11.67547823,.00026961,51.9918,174.0567,176.2151,196.7679,0,U,37191,999,72138,-.22429241E-3,-.9E-6,0
GLOBALSTAR M075,2010-054E,2026-06-19T06:30:55.732032,12.62267333,.00002185,51.9925,143.8458,24.0283,84.8930,0,U,37192,999,72220,-.62701313E-4,-.115E-5,0
GLOBALSTAR M073,2010-054F,2026-06-19T00:19:14.038752,12.62266512,.0000966,52.0071,58.7334,52.1652,321.7169,0,U,37193,999,72416,.17671201E-3,-.72E-6,0
GLOBALSTAR M083,2011-033A,2026-06-19T07:09:33.786144,12.62263243,.00009482,51.9874,6.0919,69.9582,100.8638,0,U,37739,999,69321,.93143615E-4,-.87E-6,0
GLOBALSTAR M088,2011-033B,2026-06-19T07:37:02.351712,12.62268822,.00006638,52.0215,272.4684,130.3954,245.5445,0,U,37740,999,68876,.13165968E-3,-.8E-6,0
GLOBALSTAR M091,2011-033C,2026-06-19T04:11:00.327840,12.62264032,.00002535,51.9989,235.8666,159.1742,227.2270,0,U,37741,999,68953,.76914991E-4,-.9E-6,0
GLOBALSTAR M085,2011-033D,2026-06-19T07:35:53.710368,12.62264139,.00001571,52.0096,186.7260,313.4254,59.9349,0,U,37742,999,69006,-.71448058E-4,-.117E-5,0
GLOBALSTAR M081,2011-033E,2026-06-19T08:14:10.514400,12.62265136,.00001031,51.9930,189.0793,71.6140,302.2594,0,U,37743,999,69021,-.8810835E-5,-.105E-5,0
GLOBALSTAR M089,2011-033F,2026-06-19T05:22:43.485024,12.62267261,.00003737,51.9909,143.5989,81.6003,291.8607,0,U,37744,999,69104,-.14794348E-4,-.106E-5,0
GLOBALSTAR M084,2011-080A,2026-06-19T06:31:37.792416,12.62267578,.00010969,52.0027,10.9355,88.7321,82.2102,0,U,38040,999,66902,.24794685E-4,-.99E-6,0
GLOBALSTAR M080,2011-080B,2026-06-19T07:44:18.574944,12.62269478,.00003995,52.0078,12.5007,71.7512,98.7113,0,U,38041,999,66915,.63561937E-4,-.92E-6,0
GLOBALSTAR M082,2011-080C,2026-06-19T04:18:29.937024,12.62263766,.00005162,52.0100,328.4373,101.3671,69.3051,0,U,38042,999,66984,.12426909E-3,-.82E-6,0
GLOBALSTAR M092,2011-080D,2026-06-19T01:37:05.095776,12.62267034,.00007327,52.0095,59.1748,65.9538,74.1417,0,U,38043,999,66828,.93882334E-4,-.87E-6,0
GLOBALSTAR M090,2011-080E,2026-06-19T04:56:40.758720,12.62269053,.00007789,52.0141,322.3126,94.1876,76.0831,0,U,38044,999,66996,.25938838E-4,-.99E-6,0
GLOBALSTAR M086,2011-080F,2026-06-19T03:34:08.677920,12.62286790,.00016927,51.9916,322.4139,70.9137,99.8996,0,U,38045,999,66990,.91319215E-4,-.87E-6,0
GLOBALSTAR M097,2013-005A,2026-06-18T21:43:08.505984,12.62247278,.0000254,52.0038,238.1086,126.9260,233.1630,0,U,39072,999,61712,.5863E-4,-.93E-6,0
GLOBALSTAR M093,2013-005B,2026-06-19T04:40:38.180640,12.62266030,.00001752,52.0093,230.5728,81.7864,278.3023,0,U,39073,999,61711,.53848811E-4,-.94E-6,0
GLOBALSTAR M094,2013-005C,2026-06-19T04:40:28.676640,12.62268533,.00004609,51.9932,144.6858,8.3704,351.7170,0,U,39074,999,61872,-.9130253E-4,-.12E-5,0
GLOBALSTAR M096,2013-005D,2026-06-19T04:59:53.666592,12.62265672,.00000719,52.0044,193.4491,323.2816,36.8046,0,U,39075,999,61764,-.53668692E-4,-.113E-5,0
GLOBALSTAR M078,2013-005E,2026-06-19T06:15:04.846464,12.62257787,.00005007,51.9884,277.2972,237.0434,123.0385,0,U,39076,999,61627,-.13359518E-3,-.128E-5,0
GLOBALSTAR M095,2013-005F,2026-06-18T23:17:29.196384,12.62263473,.00001961,52.0090,275.7870,131.0918,228.9966,0,U,39077,999,61609,.11014182E-3,-.84E-6,0
GLOBALSTAR M087,2022-064A,2026-06-19T03:24:35.325792,12.62269147,.00007906,52.0009,56.5010,42.7464,317.3465,0,U,52888,999,19138,.112876E-3,-.84E-6,0
